[{"OBJECT_NAME":"STARLINK-3232","OBJECT_ID":"2022-001G","EPOCH":"2026-03-09T11:29:59.321184","MEAN_MOTION":15.08845152,"ECCENTRICITY":0.00010688,"INCLINATION":53.2179,"RA_OF_ASC_NODE":160.0731,"ARG_OF_PERICENTER":80.3687,"MEAN_ANOMALY":279.7426,"EPHEMERIS_TYPE":0,"CLASSIFICATION_TYPE":"U","NORAD_CAT_ID":50809,"ELEMENT_SET_NO":999,"REV_AT_EPOCH":23051,"BSTAR":0.00045475065,"MEAN_MOTION_DOT":6.958e-5,"MEAN_MOTION_DDOT":0},{"OBJECT_NAME":"LANDSAT 5","OBJECT_ID":"1984-021A","EPOCH":"2026-03-09T17:06:39.595392","MEAN_MOTION":15.03956175,"ECCENTRICITY":0.00705197,"INCLINATION":98.0698,"RA_OF_ASC_NODE":343.5816,"ARG_OF_PERICENTER":90.3041,"MEAN_ANOMALY":270.6265,"EPHEMERIS_TYPE":0,"CLASSIFICATION_TYPE":"U","NORAD_CAT_ID":14780,"ELEMENT_SET_NO":999,"REV_AT_EPOCH":77643,"BSTAR":0.00029889959,"MEAN_MOTION_DOT":4.286e-5,"MEAN_MOTION_DDOT":0}]
